[
  {
    "OBJECT_NAME": "STARLINK-1394",
    "OBJECT_ID": "20035Y",
    "EPOCH": "2025-11-11T06:43:41.068416",
    "MEAN_MOTION": 15.0640937,
    "ECCENTRICITY": 0.0001241,
    "INCLINATION": 53.0527,
    "RA_OF_ASC_NODE": 228.1802,
    "ARG_OF_PERICENTER": 90.4062,
    "MEAN_ANOMALY": 269.7069,
    "EPHEMERIS_TYPE": 0,
    "CLASSIFICATION_TYPE": "U",
    "NORAD_CAT_ID": 45679,
    "ELEMENT_SET_NO": 999,
    "REV_AT_EPOCH": 30102,
    "BSTAR": 0.0014512,
    "MEAN_MOTION_DOT": 0.00021405,
    "MEAN_MOTION_DDOT": 0.0,
    "TLE_LINE1": "1 45679U 20035Y   25315.28033644  .00021405  00000+0  14512-2 0  9993",
    "TLE_LINE2": "2 45679  53.0527 228.1802 0001241  90.4062 269.7069 15.06409370301027",
    "COMMENT": "Grouped by shell and plane from TLE"
  },
  {
    "OBJECT_NAME": "STARLINK-1404",
    "OBJECT_ID": "20035AF",
    "EPOCH": "2025-11-11T04:09:45.673920",
    "MEAN_MOTION": 15.06401614,
    "ECCENTRICITY": 0.000146,
    "INCLINATION": 53.054,
    "RA_OF_ASC_NODE": 228.6618,
    "ARG_OF_PERICENTER": 77.5435,
    "MEAN_ANOMALY": 282.5718,
    "EPHEMERIS_TYPE": 0,
    "CLASSIFICATION_TYPE": "U",
    "NORAD_CAT_ID": 45686,
    "ELEMENT_SET_NO": 999,
    "REV_AT_EPOCH": 30101,
    "BSTAR": 0.00057348,
    "MEAN_MOTION_DOT": 8.271e-05,
    "MEAN_MOTION_DDOT": 0.0,
    "TLE_LINE1": "1 45686U 20035AF  25315.17344530  .00008271  00000+0  57348-3 0  9999",
    "TLE_LINE2": "2 45686  53.0540 228.6618 0001460  77.5435 282.5718 15.06401614301019",
    "COMMENT": "Grouped by shell and plane from TLE"
  },
  {
    "OBJECT_NAME": "STARLINK-1413",
    "OBJECT_ID": "20035AJ",
    "EPOCH": "2025-11-11T04:36:17.919648",
    "MEAN_MOTION": 15.0638929,
    "ECCENTRICITY": 0.000157,
    "INCLINATION": 53.0543,
    "RA_OF_ASC_NODE": 228.5736,
    "ARG_OF_PERICENTER": 91.2543,
    "MEAN_ANOMALY": 268.8626,
    "EPHEMERIS_TYPE": 0,
    "CLASSIFICATION_TYPE": "U",
    "NORAD_CAT_ID": 45689,
    "ELEMENT_SET_NO": 999,
    "REV_AT_EPOCH": 30092,
    "BSTAR": 4.4599000000000004e-05,
    "MEAN_MOTION_DOT": 3.83e-06,
    "MEAN_MOTION_DDOT": 0.0,
    "TLE_LINE1": "1 45689U 20035AJ  25315.19187407  .00000383  00000+0  44599-4 0  9993",
    "TLE_LINE2": "2 45689  53.0543 228.5736 0001570  91.2543 268.8626 15.06389290300929",
    "COMMENT": "Grouped by shell and plane from TLE"
  },
  {
    "OBJECT_NAME": "STARLINK-1417",
    "OBJECT_ID": "20035AN",
    "EPOCH": "2025-11-11T01:19:54.571872",
    "MEAN_MOTION": 15.06403258,
    "ECCENTRICITY": 0.0001427,
    "INCLINATION": 53.0537,
    "RA_OF_ASC_NODE": 229.1861,
    "ARG_OF_PERICENTER": 94.5979,
    "MEAN_ANOMALY": 265.5173,
    "EPHEMERIS_TYPE": 0,
    "CLASSIFICATION_TYPE": "U",
    "NORAD_CAT_ID": 45693,
    "ELEMENT_SET_NO": 999,
    "REV_AT_EPOCH": 30098,
    "BSTAR": 0.00011398,
    "MEAN_MOTION_DOT": 1.417e-05,
    "MEAN_MOTION_DDOT": 0.0,
    "TLE_LINE1": "1 45693U 20035AN  25315.05549273  .00001417  00000+0  11398-3 0  9995",
    "TLE_LINE2": "2 45693  53.0537 229.1861 0001427  94.5979 265.5173 15.06403258300981",
    "COMMENT": "Grouped by shell and plane from TLE"
  },
  {
    "OBJECT_NAME": "STARLINK-1422",
    "OBJECT_ID": "20035AR",
    "EPOCH": "2025-11-11T01:35:50.166240",
    "MEAN_MOTION": 15.06395244,
    "ECCENTRICITY": 0.0001903,
    "INCLINATION": 53.0558,
    "RA_OF_ASC_NODE": 229.1454,
    "ARG_OF_PERICENTER": 94.5494,
    "MEAN_ANOMALY": 265.5713,
    "EPHEMERIS_TYPE": 0,
    "CLASSIFICATION_TYPE": "U",
    "NORAD_CAT_ID": 45696,
    "ELEMENT_SET_NO": 999,
    "REV_AT_EPOCH": 30098,
    "BSTAR": 0.00024165000000000002,
    "MEAN_MOTION_DOT": 3.319e-05,
    "MEAN_MOTION_DDOT": 0.0,
    "TLE_LINE1": "1 45696U 20035AR  25315.06655285  .00003319  00000+0  24165-3 0  9999",
    "TLE_LINE2": "2 45696  53.0558 229.1454 0001903  94.5494 265.5713 15.06395244300981",
    "COMMENT": "Grouped by shell and plane from TLE"
  },
  {
    "OBJECT_NAME": "STARLINK-1983",
    "OBJECT_ID": "21012L",
    "EPOCH": "2025-11-11T04:29:00.672576",
    "MEAN_MOTION": 15.0640867,
    "ECCENTRICITY": 0.0001244,
    "INCLINATION": 53.0541,
    "RA_OF_ASC_NODE": 223.6872,
    "ARG_OF_PERICENTER": 95.4305,
    "MEAN_ANOMALY": 264.6826,
    "EPHEMERIS_TYPE": 0,
    "CLASSIFICATION_TYPE": "U",
    "NORAD_CAT_ID": 47630,
    "ELEMENT_SET_NO": 999,
    "REV_AT_EPOCH": 26238,
    "BSTAR": 0.00068159,
    "MEAN_MOTION_DOT": 9.888e-05,
    "MEAN_MOTION_DDOT": 0.0,
    "TLE_LINE1": "1 47630U 21012L   25315.18681334  .00009888  00000+0  68159-3 0  9990",
    "TLE_LINE2": "2 47630  53.0541 223.6872 0001244  95.4305 264.6826 15.06408670262389",
    "COMMENT": "Grouped by shell and plane from TLE"
  },
  {
    "OBJECT_NAME": "STARLINK-2031",
    "OBJECT_ID": "21012AE",
    "EPOCH": "2025-11-11T01:44:27.921696",
    "MEAN_MOTION": 15.06403715,
    "ECCENTRICITY": 0.0001478,
    "INCLINATION": 53.0524,
    "RA_OF_ASC_NODE": 224.11,
    "ARG_OF_PERICENTER": 87.4205,
    "MEAN_ANOMALY": 272.6953,
    "EPHEMERIS_TYPE": 0,
    "CLASSIFICATION_TYPE": "U",
    "NORAD_CAT_ID": 47648,
    "ELEMENT_SET_NO": 999,
    "REV_AT_EPOCH": 26239,
    "BSTAR": 0.00048559000000000005,
    "MEAN_MOTION_DOT": 6.959e-05,
    "MEAN_MOTION_DDOT": 0.0,
    "TLE_LINE1": "1 47648U 21012AE  25315.07254539  .00006959  00000+0  48559-3 0  9998",
    "TLE_LINE2": "2 47648  53.0524 224.1100 0001478  87.4205 272.6953 15.06403715262394",
    "COMMENT": "Grouped by shell and plane from TLE"
  },
  {
    "OBJECT_NAME": "STARLINK-2033",
    "OBJECT_ID": "21012AG",
    "EPOCH": "2025-11-11T03:04:05.090880",
    "MEAN_MOTION": 15.06398338,
    "ECCENTRICITY": 0.0001893,
    "INCLINATION": 53.0554,
    "RA_OF_ASC_NODE": 223.8632,
    "ARG_OF_PERICENTER": 87.1242,
    "MEAN_ANOMALY": 272.9964,
    "EPHEMERIS_TYPE": 0,
    "CLASSIFICATION_TYPE": "U",
    "NORAD_CAT_ID": 47650,
    "ELEMENT_SET_NO": 999,
    "REV_AT_EPOCH": 26238,
    "BSTAR": 0.00027134,
    "MEAN_MOTION_DOT": 3.762e-05,
    "MEAN_MOTION_DDOT": 0.0,
    "TLE_LINE1": "1 47650U 21012AG  25315.12783670  .00003762  00000+0  27134-3 0  9995",
    "TLE_LINE2": "2 47650  53.0554 223.8632 0001893  87.1242 272.9964 15.06398338262383",
    "COMMENT": "Grouped by shell and plane from TLE"
  },
  {
    "OBJECT_NAME": "STARLINK-2040",
    "OBJECT_ID": "21012AN",
    "EPOCH": "2025-11-11T03:14:40.365888",
    "MEAN_MOTION": 15.06444829,
    "ECCENTRICITY": 0.0001289,
    "INCLINATION": 53.0523,
    "RA_OF_ASC_NODE": 223.8303,
    "ARG_OF_PERICENTER": 90.063,
    "MEAN_ANOMALY": 270.0507,
    "EPHEMERIS_TYPE": 0,
    "CLASSIFICATION_TYPE": "U",
    "NORAD_CAT_ID": 47656,
    "ELEMENT_SET_NO": 999,
    "REV_AT_EPOCH": 26239,
    "BSTAR": 0.0014136,
    "MEAN_MOTION_DOT": 0.00020862,
    "MEAN_MOTION_DDOT": 0.0,
    "TLE_LINE1": "1 47656U 21012AN  25315.13518942  .00020862  00000+0  14136-2 0  9997",
    "TLE_LINE2": "2 47656  53.0523 223.8303 0001289  90.0630 270.0507 15.06444829262393",
    "COMMENT": "Grouped by shell and plane from TLE"
  },
  {
    "OBJECT_NAME": "STARLINK-3900",
    "OBJECT_ID": "22049L",
    "EPOCH": "2025-11-11T04:04:29.721216",
    "MEAN_MOTION": 15.08853614,
    "ECCENTRICITY": 0.0001557,
    "INCLINATION": 53.2171,
    "RA_OF_ASC_NODE": 221.1789,
    "ARG_OF_PERICENTER": 91.4207,
    "MEAN_ANOMALY": 268.6963,
    "EPHEMERIS_TYPE": 0,
    "CLASSIFICATION_TYPE": "U",
    "NORAD_CAT_ID": 52461,
    "ELEMENT_SET_NO": 999,
    "REV_AT_EPOCH": 19449,
    "BSTAR": 0.00015159,
    "MEAN_MOTION_DOT": 2.126e-05,
    "MEAN_MOTION_DDOT": 0.0,
    "TLE_LINE1": "1 52461U 22049L   25315.16978844  .00002126  00000+0  15159-3 0  9992",
    "TLE_LINE2": "2 52461  53.2171 221.1789 0001557  91.4207 268.6963 15.08853614194498",
    "COMMENT": "Grouped by shell and plane from TLE"
  },
  {
    "OBJECT_NAME": "STARLINK-3885",
    "OBJECT_ID": "22049N",
    "EPOCH": "2025-11-11T03:59:11.688000",
    "MEAN_MOTION": 15.08860651,
    "ECCENTRICITY": 9.68e-05,
    "INCLINATION": 53.2174,
    "RA_OF_ASC_NODE": 221.1939,
    "ARG_OF_PERICENTER": 84.8404,
    "MEAN_ANOMALY": 275.2699,
    "EPHEMERIS_TYPE": 0,
    "CLASSIFICATION_TYPE": "U",
    "NORAD_CAT_ID": 52463,
    "ELEMENT_SET_NO": 999,
    "REV_AT_EPOCH": 19449,
    "BSTAR": 0.00029102,
    "MEAN_MOTION_DOT": 4.349e-05,
    "MEAN_MOTION_DDOT": 0.0,
    "TLE_LINE1": "1 52463U 22049N   25315.16610750  .00004349  00000+0  29102-3 0  9995",
    "TLE_LINE2": "2 52463  53.2174 221.1939 0000968  84.8404 275.2699 15.08860651194499",
    "COMMENT": "Grouped by shell and plane from TLE"
  },
  {
    "OBJECT_NAME": "STARLINK-3863",
    "OBJECT_ID": "22049Q",
    "EPOCH": "2025-11-11T03:53:53.723040",
    "MEAN_MOTION": 15.08848054,
    "ECCENTRICITY": 0.0001411,
    "INCLINATION": 53.2172,
    "RA_OF_ASC_NODE": 221.212,
    "ARG_OF_PERICENTER": 85.4422,
    "MEAN_ANOMALY": 274.6731,
    "EPHEMERIS_TYPE": 0,
    "CLASSIFICATION_TYPE": "U",
    "NORAD_CAT_ID": 52465,
    "ELEMENT_SET_NO": 999,
    "REV_AT_EPOCH": 19449,
    "BSTAR": 0.00016641,
    "MEAN_MOTION_DOT": 2.362e-05,
    "MEAN_MOTION_DDOT": 0.0,
    "TLE_LINE1": "1 52465U 22049Q   25315.16242735  .00002362  00000+0  16641-3 0  9998",
    "TLE_LINE2": "2 52465  53.2172 221.2120 0001411  85.4422 274.6731 15.08848054194496",
    "COMMENT": "Grouped by shell and plane from TLE"
  },
  {
    "OBJECT_NAME": "STARLINK-3855",
    "OBJECT_ID": "22049Z",
    "EPOCH": "2025-11-11T00:33:54.986112",
    "MEAN_MOTION": 15.0884055,
    "ECCENTRICITY": 0.0001519,
    "INCLINATION": 53.2186,
    "RA_OF_ASC_NODE": 221.8432,
    "ARG_OF_PERICENTER": 89.1656,
    "MEAN_ANOMALY": 270.9511,
    "EPHEMERIS_TYPE": 0,
    "CLASSIFICATION_TYPE": "U",
    "NORAD_CAT_ID": 52474,
    "ELEMENT_SET_NO": 999,
    "REV_AT_EPOCH": 19447,
    "BSTAR": 0.00010051,
    "MEAN_MOTION_DOT": 1.312e-05,
    "MEAN_MOTION_DDOT": 0.0,
    "TLE_LINE1": "1 52474U 22049Z   25315.02355308  .00001312  00000+0  10051-3 0  9997",
    "TLE_LINE2": "2 52474  53.2186 221.8432 0001519  89.1656 270.9511 15.08840550194478",
    "COMMENT": "Grouped by shell and plane from TLE"
  }
]